TRANSPORTER-15 J        
1 66674U 25276J   25354.19961475  .00004981  00000+0  25742-3 0  9996
2 66674  97.4383  65.8041 0004944 266.7809  93.2859 15.16715913  3253
TRANSPORTER-15 K        
1 66675U 25276K   25354.06608416  .00007889  00000+0  40289-3 0  9999
2 66675  97.4401  65.6801 0004965 271.4608  88.6057 15.16956079  3236
TRANSPORTER-15 L        
1 66676U 25276L   25354.13339826  .00006482  00000+0  33349-3 0  9991
2 66676  97.4395  65.7443 0004752 269.1170  90.9518 15.16763440  3241
TRANSPORTER-15 M        
1 66677U 25276M   25353.59923131  .00009158  00000+0  46126-3 0  9999
2 66677  97.4397  65.2316 0003817 279.7196  80.3606 15.17398982  3162
TRANSPORTER-15 N        
1 66678U 25276N   25354.13285302  .00006930  00000+0  35575-3 0  9993
2 66678  97.4430  65.7532 0004803 260.9697  99.0992 15.16819496  3241
TRANSPORTER-15 P        
1 66679U 25276P   25354.13384574  .00005840  00000+0  30165-3 0  9994
2 66679  97.4373  65.7374 0004545 269.6392  90.4321 15.16669793  3247
TRANSPORTER-15 Q        
1 66680U 25276Q   25354.13262666  .00005212  00000+0  26859-3 0  9991
2 66680  97.4424  65.7502 0004629 258.9467 101.1246 15.16796846  3242
TRANSPORTER-15 R        
1 66681U 25276R   25354.06266821  .00010892  00000+0  54857-3 0  9990
2 66681  97.4347  65.6707 0004886 287.8227  72.2474 15.17350131  3237
TRANSPORTER-15 S        
1 66682U 25276S   25354.13037603  .00007284  00000+0  37092-3 0  9996
2 66682  97.4468  65.7643 0004739 251.0315 109.0405 15.17084078  3248
TRANSPORTER-15 T        
1 66683U 25276T   25354.19696365  .00004696  00000+0  24112-3 0  9992
2 66683  97.4462  65.8270 0004611 253.4472 106.6255 15.16976032  3255
TRANSPORTER-15 U        
1 66684U 25276U   25354.06242216  .00008698  00000+0  44013-3 0  9999
2 66684  97.4485  65.7072 0004333 252.8538 107.2221 15.17251438  3232
TRANSPORTER-15 V        
1 66685U 25276V   25353.59977146  .00009795  00000+0  49331-3 0  9991
2 66685  97.4431  65.2408 0003974 278.7845  81.2938 15.17380939  3167
