CCSDS_OMM_VERS = 2.0
CREATION_DATE  = 
ORIGINATOR     = 

OBJECT_NAME    = TRANSPORTER-15 J
OBJECT_ID      = 2025-276J
CENTER_NAME    = EARTH
REF_FRAME      = TEME
TIME_SYSTEM    = UTC
MEAN_ELEMENT_THEORY = SGP/SGP4

EPOCH          = 2025-12-20T04:47:26.714400
MEAN_MOTION    = 15.16715913
ECCENTRICITY   = .00049441
INCLINATION    = 97.4383
RA_OF_ASC_NODE = 65.8041
ARG_OF_PERICENTER = 266.7809
MEAN_ANOMALY   = 93.2859

EPHEMERIS_TYPE = 0
CLASSIFICATION_TYPE = U
NORAD_CAT_ID   = 66674
ELEMENT_SET_NO = 999
REV_AT_EPOCH   = 325
BSTAR          = .25742448E-3
MEAN_MOTION_DOT = .4981E-4
MEAN_MOTION_DDOT = 0

CCSDS_OMM_VERS = 2.0
CREATION_DATE  = 
ORIGINATOR     = 

OBJECT_NAME    = TRANSPORTER-15 K
OBJECT_ID      = 2025-276K
CENTER_NAME    = EARTH
REF_FRAME      = TEME
TIME_SYSTEM    = UTC
MEAN_ELEMENT_THEORY = SGP/SGP4

EPOCH          = 2025-12-20T01:35:09.671424
MEAN_MOTION    = 15.16956079
ECCENTRICITY   = .00049655
INCLINATION    = 97.4401
RA_OF_ASC_NODE = 65.6801
ARG_OF_PERICENTER = 271.4608
MEAN_ANOMALY   = 88.6057

EPHEMERIS_TYPE = 0
CLASSIFICATION_TYPE = U
NORAD_CAT_ID   = 66675
ELEMENT_SET_NO = 999
REV_AT_EPOCH   = 323
BSTAR          = .40288595E-3
MEAN_MOTION_DOT = .7889E-4
MEAN_MOTION_DDOT = 0

CCSDS_OMM_VERS = 2.0
CREATION_DATE  = 
ORIGINATOR     = 

OBJECT_NAME    = TRANSPORTER-15 L
OBJECT_ID      = 2025-276L
CENTER_NAME    = EARTH
REF_FRAME      = TEME
TIME_SYSTEM    = UTC
MEAN_ELEMENT_THEORY = SGP/SGP4

EPOCH          = 2025-12-20T03:12:05.609664
MEAN_MOTION    = 15.16763440
ECCENTRICITY   = .00047525
INCLINATION    = 97.4395
RA_OF_ASC_NODE = 65.7443
ARG_OF_PERICENTER = 269.1170
MEAN_ANOMALY   = 90.9518

EPHEMERIS_TYPE = 0
CLASSIFICATION_TYPE = U
NORAD_CAT_ID   = 66676
ELEMENT_SET_NO = 999
REV_AT_EPOCH   = 324
BSTAR          = .3334872E-3
MEAN_MOTION_DOT = .6482E-4
MEAN_MOTION_DDOT = 0

CCSDS_OMM_VERS = 2.0
CREATION_DATE  = 
ORIGINATOR     = 

OBJECT_NAME    = TRANSPORTER-15 M
OBJECT_ID      = 2025-276M
CENTER_NAME    = EARTH
REF_FRAME      = TEME
TIME_SYSTEM    = UTC
MEAN_ELEMENT_THEORY = SGP/SGP4

EPOCH          = 2025-12-19T14:22:53.585184
MEAN_MOTION    = 15.17398982
ECCENTRICITY   = .0003817
INCLINATION    = 97.4397
RA_OF_ASC_NODE = 65.2316
ARG_OF_PERICENTER = 279.7196
MEAN_ANOMALY   = 80.3606

EPHEMERIS_TYPE = 0
CLASSIFICATION_TYPE = U
NORAD_CAT_ID   = 66677
ELEMENT_SET_NO = 999
REV_AT_EPOCH   = 316
BSTAR          = .46126E-3
MEAN_MOTION_DOT = .9158E-4
MEAN_MOTION_DDOT = 0

CCSDS_OMM_VERS = 2.0
CREATION_DATE  = 
ORIGINATOR     = 

OBJECT_NAME    = TRANSPORTER-15 N
OBJECT_ID      = 2025-276N
CENTER_NAME    = EARTH
REF_FRAME      = TEME
TIME_SYSTEM    = UTC
MEAN_ELEMENT_THEORY = SGP/SGP4

EPOCH          = 2025-12-20T03:11:18.500928
MEAN_MOTION    = 15.16819496
ECCENTRICITY   = .00048039
INCLINATION    = 97.4430
RA_OF_ASC_NODE = 65.7532
ARG_OF_PERICENTER = 260.9697
MEAN_ANOMALY   = 99.0992

EPHEMERIS_TYPE = 0
CLASSIFICATION_TYPE = U
NORAD_CAT_ID   = 66678
ELEMENT_SET_NO = 999
REV_AT_EPOCH   = 324
BSTAR          = .35574931E-3
MEAN_MOTION_DOT = .693E-4
MEAN_MOTION_DDOT = 0

CCSDS_OMM_VERS = 2.0
CREATION_DATE  = 
ORIGINATOR     = 

OBJECT_NAME    = TRANSPORTER-15 P
OBJECT_ID      = 2025-276P
CENTER_NAME    = EARTH
REF_FRAME      = TEME
TIME_SYSTEM    = UTC
MEAN_ELEMENT_THEORY = SGP/SGP4

EPOCH          = 2025-12-20T03:12:44.271936
MEAN_MOTION    = 15.16669793
ECCENTRICITY   = .00045459
INCLINATION    = 97.4373
RA_OF_ASC_NODE = 65.7374
ARG_OF_PERICENTER = 269.6392
MEAN_ANOMALY   = 90.4321

EPHEMERIS_TYPE = 0
CLASSIFICATION_TYPE = U
NORAD_CAT_ID   = 66679
ELEMENT_SET_NO = 999
REV_AT_EPOCH   = 324
BSTAR          = .30164742E-3
MEAN_MOTION_DOT = .584E-4
MEAN_MOTION_DDOT = 0

CCSDS_OMM_VERS = 2.0
CREATION_DATE  = 
ORIGINATOR     = 

OBJECT_NAME    = TRANSPORTER-15 Q
OBJECT_ID      = 2025-276Q
CENTER_NAME    = EARTH
REF_FRAME      = TEME
TIME_SYSTEM    = UTC
MEAN_ELEMENT_THEORY = SGP/SGP4

EPOCH          = 2025-12-20T03:10:58.943424
MEAN_MOTION    = 15.16796846
ECCENTRICITY   = .00046291
INCLINATION    = 97.4424
RA_OF_ASC_NODE = 65.7502
ARG_OF_PERICENTER = 258.9467
MEAN_ANOMALY   = 101.1246

EPHEMERIS_TYPE = 0
CLASSIFICATION_TYPE = U
NORAD_CAT_ID   = 66680
ELEMENT_SET_NO = 999
REV_AT_EPOCH   = 324
BSTAR          = .26859057E-3
MEAN_MOTION_DOT = .5212E-4
MEAN_MOTION_DDOT = 0

CCSDS_OMM_VERS = 2.0
CREATION_DATE  = 
ORIGINATOR     = 

OBJECT_NAME    = TRANSPORTER-15 R
OBJECT_ID      = 2025-276R
CENTER_NAME    = EARTH
REF_FRAME      = TEME
TIME_SYSTEM    = UTC
MEAN_ELEMENT_THEORY = SGP/SGP4

EPOCH          = 2025-12-20T01:30:14.533344
MEAN_MOTION    = 15.17350131
ECCENTRICITY   = .00048864
INCLINATION    = 97.4347
RA_OF_ASC_NODE = 65.6707
ARG_OF_PERICENTER = 287.8227
MEAN_ANOMALY   = 72.2474

EPHEMERIS_TYPE = 0
CLASSIFICATION_TYPE = U
NORAD_CAT_ID   = 66681
ELEMENT_SET_NO = 999
REV_AT_EPOCH   = 323
BSTAR          = .54856684E-3
MEAN_MOTION_DOT = .10892E-3
MEAN_MOTION_DDOT = 0

CCSDS_OMM_VERS = 2.0
CREATION_DATE  = 
ORIGINATOR     = 

OBJECT_NAME    = TRANSPORTER-15 S
OBJECT_ID      = 2025-276S
CENTER_NAME    = EARTH
REF_FRAME      = TEME
TIME_SYSTEM    = UTC
MEAN_ELEMENT_THEORY = SGP/SGP4

EPOCH          = 2025-12-20T03:07:44.488992
MEAN_MOTION    = 15.17084078
ECCENTRICITY   = .00047396
INCLINATION    = 97.4468
RA_OF_ASC_NODE = 65.7643
ARG_OF_PERICENTER = 251.0315
MEAN_ANOMALY   = 109.0405

EPHEMERIS_TYPE = 0
CLASSIFICATION_TYPE = U
NORAD_CAT_ID   = 66682
ELEMENT_SET_NO = 999
REV_AT_EPOCH   = 324
BSTAR          = .37091705E-3
MEAN_MOTION_DOT = .7284E-4
MEAN_MOTION_DDOT = 0

CCSDS_OMM_VERS = 2.0
CREATION_DATE  = 
ORIGINATOR     = 

OBJECT_NAME    = TRANSPORTER-15 T
OBJECT_ID      = 2025-276T
CENTER_NAME    = EARTH
REF_FRAME      = TEME
TIME_SYSTEM    = UTC
MEAN_ELEMENT_THEORY = SGP/SGP4

EPOCH          = 2025-12-20T04:43:37.659360
MEAN_MOTION    = 15.16976032
ECCENTRICITY   = .00046117
INCLINATION    = 97.4462
RA_OF_ASC_NODE = 65.8270
ARG_OF_PERICENTER = 253.4472
MEAN_ANOMALY   = 106.6255

EPHEMERIS_TYPE = 0
CLASSIFICATION_TYPE = U
NORAD_CAT_ID   = 66683
ELEMENT_SET_NO = 999
REV_AT_EPOCH   = 325
BSTAR          = .24112286E-3
MEAN_MOTION_DOT = .4696E-4
MEAN_MOTION_DDOT = 0

CCSDS_OMM_VERS = 2.0
CREATION_DATE  = 
ORIGINATOR     = 

OBJECT_NAME    = TRANSPORTER-15 U
OBJECT_ID      = 2025-276U
CENTER_NAME    = EARTH
REF_FRAME      = TEME
TIME_SYSTEM    = UTC
MEAN_ELEMENT_THEORY = SGP/SGP4

EPOCH          = 2025-12-20T01:29:53.274624
MEAN_MOTION    = 15.17251438
ECCENTRICITY   = .00043335
INCLINATION    = 97.4485
RA_OF_ASC_NODE = 65.7072
ARG_OF_PERICENTER = 252.8538
MEAN_ANOMALY   = 107.2221

EPHEMERIS_TYPE = 0
CLASSIFICATION_TYPE = U
NORAD_CAT_ID   = 66684
ELEMENT_SET_NO = 999
REV_AT_EPOCH   = 323
BSTAR          = .44012842E-3
MEAN_MOTION_DOT = .8698E-4
MEAN_MOTION_DDOT = 0

CCSDS_OMM_VERS = 2.0
CREATION_DATE  = 
ORIGINATOR     = 

OBJECT_NAME    = TRANSPORTER-15 V
OBJECT_ID      = 2025-276V
CENTER_NAME    = EARTH
REF_FRAME      = TEME
TIME_SYSTEM    = UTC
MEAN_ELEMENT_THEORY = SGP/SGP4

EPOCH          = 2025-12-19T14:23:40.254144
MEAN_MOTION    = 15.17380939
ECCENTRICITY   = .0003974
INCLINATION    = 97.4431
RA_OF_ASC_NODE = 65.2408
ARG_OF_PERICENTER = 278.7845
MEAN_ANOMALY   = 81.2938

EPHEMERIS_TYPE = 0
CLASSIFICATION_TYPE = U
NORAD_CAT_ID   = 66685
ELEMENT_SET_NO = 999
REV_AT_EPOCH   = 316
BSTAR          = .49331E-3
MEAN_MOTION_DOT = .9795E-4
MEAN_MOTION_DDOT = 0

